{"type": "FeatureCollection", "features": [ {"type": "Feature", "properties": {"norad_id": 30928, "name": "FENGYUN 1C DEB", "group": "fengyun-1c-debris", "lat": 66.64042944753773, "lon": 47.62064998053291, "alt_km": 840.7069129486345, "timestamp": "2025-12-04T07:39:36.414762+00:00", "meta": {"OBJECT_NAME": "FENGYUN 1C DEB", "OBJECT_ID": "1999-025AZS", "EPOCH": "2025-12-02T04:48:04.904928", "MEAN_MOTION": 13.22221332, "ECCENTRICITY": 0.045112, "INCLINATION": 98.8836, "RA_OF_ASC_NODE": 67.0421, "ARG_OF_PERICENTER": 57.6478, "MEAN_ANOMALY": 7.5056, "EPHEMERIS_TYPE": 0, "CLASSIFICATION_TYPE": "U", "NORAD_CAT_ID": 30928, "ELEMENT_SET_NO": 999, "REV_AT_EPOCH": 90209, "BSTAR": 0.00088279603, "MEAN_MOTION_DOT": 5.96e-06, "MEAN_MOTION_DDOT": 0}, "tle": {"line1": "1 30928U 99025AZS 25336.20005677  .00000596  00000+0  88280-3 0  9991", "line2": "2 30928  98.8836  67.0421 0451120  57.6478   7.5056 13.22221332902090"}}, "geometry": {"type": "Point", "coordinates": [47.62064998053291, 66.64042944753773]}}, {"type": "Feature", "properties": {"norad_id": 30930, "name": "FENGYUN 1C DEB", "group": "fengyun-1c-debris", "lat": -37.666875592975366, "lon": 13.39109002155844, "alt_km": 850.5046060543573, "timestamp": "2025-12-04T07:39:36.414771+00:00", "meta": {"OBJECT_NAME": "FENGYUN 1C DEB", "OBJECT_ID": "1999-025AZU", "EPOCH": "2025-12-02T07:40:45.179040", "MEAN_MOTION": 14.37352769, "ECCENTRICITY": 0.0109503, "INCLINATION": 98.2165, "RA_OF_ASC_NODE": 5.0765, "ARG_OF_PERICENTER": 137.3637, "MEAN_ANOMALY": 286.006, "EPHEMERIS_TYPE": 0, "CLASSIFICATION_TYPE": "U", "NORAD_CAT_ID": 30930, "ELEMENT_SET_NO": 999, "REV_AT_EPOCH": 98182, "BSTAR": 0.00047615, "MEAN_MOTION_DOT": 1.481e-05, "MEAN_MOTION_DDOT": 0}, "tle": {"line1": "1 30930U 99025AZU 25336.31996735  .00001481  00000+0  47615-3 0  9991", "line2": "2 30930  98.2165   5.0765 0109503 137.3637 286.0060 14.37352769981826"}}, "geometry": {"type": "Point", "coordinates": [13.39109002155844, -37.666875592975366]}}, {"type": "Feature", "properties": {"norad_id": 30931, "name": "FENGYUN 1C DEB", "group": "fengyun-1c-debris", "lat": 17.054955046865075, "lon": -141.3484291307972, "alt_km": 897.8280931790096, "timestamp": "2025-12-04T07:39:36.414780+00:00", "meta": {"OBJECT_NAME": "FENGYUN 1C DEB", "OBJECT_ID": "1999-025AZV", "EPOCH": "2025-12-02T03:47:35.105280", "MEAN_MOTION": 14.01483755, "ECCENTRICITY": 0.00934004, "INCLINATION": 99.1741, "RA_OF_ASC_NODE": 33.6379, "ARG_OF_PERICENTER": 70.6138, "MEAN_ANOMALY": 353.2512, "EPHEMERIS_TYPE": 0, "CLASSIFICATION_TYPE": "U", "NORAD_CAT_ID": 30931, "ELEMENT_SET_NO": 999, "REV_AT_EPOCH": 95777, "BSTAR": 0.00063376382, "MEAN_MOTION_DOT": 9.5e-06, "MEAN_MOTION_DDOT": 0}, "tle": {"line1": "1 30931U 99025AZV 25336.15804520  .00000950  00000+0  63376-3 0  9996", "line2": "2 30931  99.1741  33.6379 0093400  70.6138 353.2512 14.01483755957775"}}, "geometry": {"type": "Point", "coordinates": [-141.3484291307972, 17.054955046865075]}}, {"type": "Feature", "properties": {"norad_id": 30932, "name": "FENGYUN 1C DEB", "group": "fengyun-1c-debris", "lat": 47.37458056543924, "lon": -98.73969056119671, "alt_km": 798.7723756221394, "timestamp": "2025-12-04T07:39:36.414789+00:00", "meta": {"OBJECT_NAME": "FENGYUN 1C DEB", "OBJECT_ID": "1999-025AZW", "EPOCH": "2025-12-02T13:21:15.743808", "MEAN_MOTION": 14.2657023, "ECCENTRICITY": 0.00597024, "INCLINATION": 98.908, "RA_OF_ASC_NODE": 269.2788, "ARG_OF_PERICENTER": 323.0906, "MEAN_ANOMALY": 36.6172, "EPHEMERIS_TYPE": 0, "CLASSIFICATION_TYPE": "U", "NORAD_CAT_ID": 30932, "ELEMENT_SET_NO": 999, "REV_AT_EPOCH": 96249, "BSTAR": 0.0039272041, "MEAN_MOTION_DOT": 9.621e-05, "MEAN_MOTION_DDOT": 0}, "tle": {"line1": "1 30932U 99025AZW 25336.55643222  .00009621  00000+0  39272-2 0  9992", "line2": "2 30932  98.9080 269.2788 0059702 323.0906  36.6172 14.26570230962496"}}, "geometry": {"type": "Point", "coordinates": [-98.73969056119671, 47.37458056543924]}}, {"type": "Feature", "properties": {"norad_id": 30933, "name": "FENGYUN 1C DEB", "group": "fengyun-1c-debris", "lat": 15.992769839116676, "lon": -42.22321882022758, "alt_km": 723.508615080169, "timestamp": "2025-12-04T07:39:36.414799+00:00", "meta": {"OBJECT_NAME": "FENGYUN 1C DEB", "OBJECT_ID": "1999-025AZX", "EPOCH": "2025-12-03T17:20:28.459104", "MEAN_MOTION": 14.36020019, "ECCENTRICITY": 0.00781595, "INCLINATION": 99.0461, "RA_OF_ASC_NODE": 319.768, "ARG_OF_PERICENTER": 348.4877, "MEAN_ANOMALY": 184.7707, "EPHEMERIS_TYPE": 0, "CLASSIFICATION_TYPE": "U", "NORAD_CAT_ID": 30933, "ELEMENT_SET_NO": 999, "REV_AT_EPOCH": 95742, "BSTAR": 0.0078944948, "MEAN_MOTION_DOT": 0.00023793, "MEAN_MOTION_DDOT": 0}, "tle": {"line1": "1 30933U 99025AZX 25337.72255161  .00023793  00000+0  78945-2 0  9990", "line2": "2 30933  99.0461 319.7680 0078159 348.4877 184.7707 14.36020019957421"}}, "geometry": {"type": "Point", "coordinates": [-42.22321882022758, 15.992769839116676]}}, {"type": "Feature", "properties": {"norad_id": 30934, "name": "FENGYUN 1C DEB", "group": "fengyun-1c-debris", "lat": 29.319458252307847, "lon": 41.31917348222981, "alt_km": 906.0009309354591, "timestamp": "2025-12-04T07:39:36.414808+00:00", "meta": {"OBJECT_NAME": "FENGYUN 1C DEB", "OBJECT_ID": "1999-025AZY", "EPOCH": "2025-12-03T22:02:03.056352", "MEAN_MOTION": 13.46704859, "ECCENTRICITY": 0.03400325, "INCLINATION": 98.7655, "RA_OF_ASC_NODE": 215.9965, "ARG_OF_PERICENTER": 103.98, "MEAN_ANOMALY": 259.9387, "EPHEMERIS_TYPE": 0, "CLASSIFICATION_TYPE": "U", "NORAD_CAT_ID": 30934, "ELEMENT_SET_NO": 999, "REV_AT_EPOCH": 91589, "BSTAR": 0.0024901215, "MEAN_MOTION_DOT": 2.105e-05, "MEAN_MOTION_DDOT": 0}, "tle": {"line1": "1 30934U 99025AZY 25337.91809093  .00002105  00000+0  24901-2 0  9998", "line2": "2 30934  98.7655 215.9965 0340032 103.9800 259.9387 13.46704859915893"}}, "geometry": {"type": "Point", "coordinates": [41.31917348222981, 29.319458252307847]}}, {"type": "Feature", "properties": {"norad_id": 30936, "name": "FENGYUN 1C DEB", "group": "fengyun-1c-debris", "lat": 19.64681537060901, "lon": 6.238656737639312, "alt_km": 799.5757738460743, "timestamp": "2025-12-04T07:39:36.414818+00:00", "meta": {"OBJECT_NAME": "FENGYUN 1C DEB", "OBJECT_ID": "1999-025BAA", "EPOCH": "2025-12-03T08:31:11.879904", "MEAN_MOTION": 14.23338308, "ECCENTRICITY": 0.00460882, "INCLINATION": 98.5827, "RA_OF_ASC_NODE": 8.3891, "ARG_OF_PERICENTER": 318.6028, "MEAN_ANOMALY": 163.2671, "EPHEMERIS_TYPE": 0, "CLASSIFICATION_TYPE": "U", "NORAD_CAT_ID": 30936, "ELEMENT_SET_NO": 999, "REV_AT_EPOCH": 96999, "BSTAR": 0.00071520122, "MEAN_MOTION_DOT": 1.596e-05, "MEAN_MOTION_DDOT": 0}, "tle": {"line1": "1 30936U 99025BAA 25337.35499861  .00001596  00000+0  71520-3 0  9999", "line2": "2 30936  98.5827   8.3891 0046088 318.6028 163.2671 14.23338308969998"}}, "geometry": {"type": "Point", "coordinates": [6.238656737639312, 19.64681537060901]}}, {"type": "Feature", "properties": {"norad_id": 30937, "name": "FENGYUN 1C DEB", "group": "fengyun-1c-debris", "lat": -29.650457139809387, "lon": 36.02633573242792, "alt_km": 929.7976005227847, "timestamp": "2025-12-04T07:39:36.414827+00:00", "meta": {"OBJECT_NAME": "FENGYUN 1C DEB", "OBJECT_ID": "1999-025BAB", "EPOCH": "2025-12-03T09:44:46.356576", "MEAN_MOTION": 13.95582304, "ECCENTRICITY": 0.00759433, "INCLINATION": 99.0904, "RA_OF_ASC_NODE": 29.8969, "ARG_OF_PERICENTER": 78.4961, "MEAN_ANOMALY": 347.4791, "EPHEMERIS_TYPE": 0, "CLASSIFICATION_TYPE": "U", "NORAD_CAT_ID": 30937, "ELEMENT_SET_NO": 999, "REV_AT_EPOCH": 95586, "BSTAR": 2.2746802e-05, "MEAN_MOTION_DOT": -1.2e-07, "MEAN_MOTION_DDOT": 0}, "tle": {"line1": "1 30937U 99025BAB 25337.40609209 -.00000012  00000+0  22747-4 0  9996", "line2": "2 30937  99.0904  29.8969 0075943  78.4961 347.4791 13.95582304955869"}}, "geometry": {"type": "Point", "coordinates": [36.02633573242792, -29.650457139809387]}}, {"type": "Feature", "properties": {"norad_id": 30938, "name": "FENGYUN 1C DEB", "group": "fengyun-1c-debris", "lat": 39.589111226885045, "lon": -15.12136158536193, "alt_km": 794.5556940307151, "timestamp": "2025-12-04T07:39:36.414836+00:00", "meta": {"OBJECT_NAME": "FENGYUN 1C DEB", "OBJECT_ID": "1999-025BAC", "EPOCH": "2025-12-03T11:55:53.048064", "MEAN_MOTION": 14.1979591, "ECCENTRICITY": 0.00464069, "INCLINATION": 98.5911, "RA_OF_ASC_NODE": 351.2624, "ARG_OF_PERICENTER": 10.562, "MEAN_ANOMALY": 150.1314, "EPHEMERIS_TYPE": 0, "CLASSIFICATION_TYPE": "U", "NORAD_CAT_ID": 30938, "ELEMENT_SET_NO": 999, "REV_AT_EPOCH": 96988, "BSTAR": 0.0005231508, "MEAN_MOTION_DOT": 1.078e-05, "MEAN_MOTION_DDOT": 0}, "tle": {"line1": "1 30938U 99025BAC 25337.49714176  .00001078  00000+0  52315-3 0  9991", "line2": "2 30938  98.5911 351.2624 0046406  10.5620 150.1314 14.19795910969886"}}, "geometry": {"type": "Point", "coordinates": [-15.12136158536193, 39.589111226885045]}}, {"type": "Feature", "properties": {"norad_id": 30940, "name": "FENGYUN 1C DEB", "group": "fengyun-1c-debris", "lat": -46.753782087057814, "lon": -11.684061965599346, "alt_km": 863.6868831827505, "timestamp": "2025-12-04T07:39:36.414845+00:00", "meta": {"OBJECT_NAME": "FENGYUN 1C DEB", "OBJECT_ID": "1999-025BAE", "EPOCH": "2025-11-23T13:17:29.751648", "MEAN_MOTION": 14.0826145, "ECCENTRICITY": 0.004197, "INCLINATION": 98.622, "RA_OF_ASC_NODE": 328.746, "ARG_OF_PERICENTER": 57.4359, "MEAN_ANOMALY": 68.2923, "EPHEMERIS_TYPE": 0, "CLASSIFICATION_TYPE": "U", "NORAD_CAT_ID": 30940, "ELEMENT_SET_NO": 999, "REV_AT_EPOCH": 95862, "BSTAR": 0.00040929136, "MEAN_MOTION_DOT": 6.64e-06, "MEAN_MOTION_DDOT": 0}, "tle": {"line1": "1 30940U 99025BAE 25327.55381657  .00000664  00000+0  40929-3 0  9992", "line2": "2 30940  98.6220 328.7460 0041970  57.4359  68.2923 14.08261450958620"}}, "geometry": {"type": "Point", "coordinates": [-11.684061965599346, -46.753782087057814]}}]}